CCSDS_OMM_VERS = 2.0
CREATION_DATE  = 
ORIGINATOR     = 

OBJECT_NAME    = STARLINK-36703
OBJECT_ID      = 2026-022C
CENTER_NAME    = EARTH
REF_FRAME      = TEME
TIME_SYSTEM    = UTC
MEAN_ELEMENT_THEORY = SGP/SGP4

EPOCH          = 2026-02-28T01:38:16.869984
MEAN_MOTION    = 15.75220915
ECCENTRICITY   = .00012058
INCLINATION    = 97.2822
RA_OF_ASC_NODE = 92.5596
ARG_OF_PERICENTER = 11.6054
MEAN_ANOMALY   = 348.5239

EPHEMERIS_TYPE = 0
CLASSIFICATION_TYPE = U
NORAD_CAT_ID   = 67650
ELEMENT_SET_NO = 999
REV_AT_EPOCH   = 403
BSTAR          = .12497767E-2
MEAN_MOTION_DOT = .190759E-2
MEAN_MOTION_DDOT = 0

CCSDS_OMM_VERS = 2.0
CREATION_DATE  = 
ORIGINATOR     = 

OBJECT_NAME    = STARLINK-36696
OBJECT_ID      = 2026-022D
CENTER_NAME    = EARTH
REF_FRAME      = TEME
TIME_SYSTEM    = UTC
MEAN_ELEMENT_THEORY = SGP/SGP4

EPOCH          = 2026-02-28T01:35:44.364480
MEAN_MOTION    = 15.75179706
ECCENTRICITY   = .0001669
INCLINATION    = 97.2830
RA_OF_ASC_NODE = 92.5622
ARG_OF_PERICENTER = 17.2349
MEAN_ANOMALY   = 342.8972

EPHEMERIS_TYPE = 0
CLASSIFICATION_TYPE = U
NORAD_CAT_ID   = 67651
ELEMENT_SET_NO = 999
REV_AT_EPOCH   = 403
BSTAR          = .10998034E-2
MEAN_MOTION_DOT = .167089E-2
MEAN_MOTION_DDOT = 0

CCSDS_OMM_VERS = 2.0
CREATION_DATE  = 
ORIGINATOR     = 

OBJECT_NAME    = STARLINK-36699
OBJECT_ID      = 2026-022E
CENTER_NAME    = EARTH
REF_FRAME      = TEME
TIME_SYSTEM    = UTC
MEAN_ELEMENT_THEORY = SGP/SGP4

EPOCH          = 2026-02-28T01:34:43.465440
MEAN_MOTION    = 15.75191252
ECCENTRICITY   = .00010886
INCLINATION    = 97.2830
RA_OF_ASC_NODE = 92.5633
ARG_OF_PERICENTER = 29.4094
MEAN_ANOMALY   = 330.7232

EPHEMERIS_TYPE = 0
CLASSIFICATION_TYPE = U
NORAD_CAT_ID   = 67652
ELEMENT_SET_NO = 999
REV_AT_EPOCH   = 403
BSTAR          = .11848579E-2
MEAN_MOTION_DOT = .180391E-2
MEAN_MOTION_DDOT = 0

CCSDS_OMM_VERS = 2.0
CREATION_DATE  = 
ORIGINATOR     = 

OBJECT_NAME    = STARLINK-36694
OBJECT_ID      = 2026-022F
CENTER_NAME    = EARTH
REF_FRAME      = TEME
TIME_SYSTEM    = UTC
MEAN_ELEMENT_THEORY = SGP/SGP4

EPOCH          = 2026-02-28T01:31:40.500480
MEAN_MOTION    = 15.75204808
ECCENTRICITY   = .00024438
INCLINATION    = 97.2819
RA_OF_ASC_NODE = 92.5656
ARG_OF_PERICENTER = 81.5136
MEAN_ANOMALY   = 278.6406

EPHEMERIS_TYPE = 0
CLASSIFICATION_TYPE = U
NORAD_CAT_ID   = 67653
ELEMENT_SET_NO = 999
REV_AT_EPOCH   = 403
BSTAR          = .47117344E-3
MEAN_MOTION_DOT = .70786E-3
MEAN_MOTION_DDOT = 0

CCSDS_OMM_VERS = 2.0
CREATION_DATE  = 
ORIGINATOR     = 

OBJECT_NAME    = STARLINK-36620
OBJECT_ID      = 2026-022G
CENTER_NAME    = EARTH
REF_FRAME      = TEME
TIME_SYSTEM    = UTC
MEAN_ELEMENT_THEORY = SGP/SGP4

EPOCH          = 2026-02-28T01:31:10.032384
MEAN_MOTION    = 15.75190245
ECCENTRICITY   = .00011171
INCLINATION    = 97.2833
RA_OF_ASC_NODE = 92.5664
ARG_OF_PERICENTER = 59.3716
MEAN_ANOMALY   = 300.7659

EPHEMERIS_TYPE = 0
CLASSIFICATION_TYPE = U
NORAD_CAT_ID   = 67654
ELEMENT_SET_NO = 999
REV_AT_EPOCH   = 403
BSTAR          = .11455703E-2
MEAN_MOTION_DOT = .174272E-2
MEAN_MOTION_DDOT = 0

CCSDS_OMM_VERS = 2.0
CREATION_DATE  = 
ORIGINATOR     = 

OBJECT_NAME    = STARLINK-36720
OBJECT_ID      = 2026-022H
CENTER_NAME    = EARTH
REF_FRAME      = TEME
TIME_SYSTEM    = UTC
MEAN_ELEMENT_THEORY = SGP/SGP4

EPOCH          = 2026-02-28T01:28:37.033536
MEAN_MOTION    = 15.75247688
ECCENTRICITY   = .00013945
INCLINATION    = 97.2838
RA_OF_ASC_NODE = 92.5696
ARG_OF_PERICENTER = 99.7246
MEAN_ANOMALY   = 260.4177

EPHEMERIS_TYPE = 0
CLASSIFICATION_TYPE = U
NORAD_CAT_ID   = 67655
ELEMENT_SET_NO = 999
REV_AT_EPOCH   = 403
BSTAR          = .77525364E-3
MEAN_MOTION_DOT = .117399E-2
MEAN_MOTION_DDOT = 0

CCSDS_OMM_VERS = 2.0
CREATION_DATE  = 
ORIGINATOR     = 

OBJECT_NAME    = STARLINK-36688
OBJECT_ID      = 2026-022J
CENTER_NAME    = EARTH
REF_FRAME      = TEME
TIME_SYSTEM    = UTC
MEAN_ELEMENT_THEORY = SGP/SGP4

EPOCH          = 2026-02-28T01:27:36.700416
MEAN_MOTION    = 15.75219253
ECCENTRICITY   = .00013394
INCLINATION    = 97.2824
RA_OF_ASC_NODE = 92.5696
ARG_OF_PERICENTER = 23.6410
MEAN_ANOMALY   = 336.4917

EPHEMERIS_TYPE = 0
CLASSIFICATION_TYPE = U
NORAD_CAT_ID   = 67656
ELEMENT_SET_NO = 999
REV_AT_EPOCH   = 403
BSTAR          = .73411604E-3
MEAN_MOTION_DOT = .110941E-2
MEAN_MOTION_DDOT = 0

CCSDS_OMM_VERS = 2.0
CREATION_DATE  = 
ORIGINATOR     = 

OBJECT_NAME    = STARLINK-36706
OBJECT_ID      = 2026-022K
CENTER_NAME    = EARTH
REF_FRAME      = TEME
TIME_SYSTEM    = UTC
MEAN_ELEMENT_THEORY = SGP/SGP4

EPOCH          = 2026-02-28T01:25:34.142016
MEAN_MOTION    = 15.75234654
ECCENTRICITY   = .00018937
INCLINATION    = 97.2837
RA_OF_ASC_NODE = 92.5712
ARG_OF_PERICENTER = 105.7499
MEAN_ANOMALY   = 254.3975

EPHEMERIS_TYPE = 0
CLASSIFICATION_TYPE = U
NORAD_CAT_ID   = 67657
ELEMENT_SET_NO = 999
REV_AT_EPOCH   = 403
BSTAR          = .78916619E-3
MEAN_MOTION_DOT = .119474E-2
MEAN_MOTION_DDOT = 0

CCSDS_OMM_VERS = 2.0
CREATION_DATE  = 
ORIGINATOR     = 

OBJECT_NAME    = STARLINK-36701
OBJECT_ID      = 2026-022L
CENTER_NAME    = EARTH
REF_FRAME      = TEME
TIME_SYSTEM    = UTC
MEAN_ELEMENT_THEORY = SGP/SGP4

EPOCH          = 2026-02-28T01:24:03.094560
MEAN_MOTION    = 15.75244767
ECCENTRICITY   = .00015419
INCLINATION    = 97.2839
RA_OF_ASC_NODE = 92.5733
ARG_OF_PERICENTER = 114.1219
MEAN_ANOMALY   = 246.0208

EPHEMERIS_TYPE = 0
CLASSIFICATION_TYPE = U
NORAD_CAT_ID   = 67658
ELEMENT_SET_NO = 999
REV_AT_EPOCH   = 403
BSTAR          = .95297672E-3
MEAN_MOTION_DOT = .144791E-2
MEAN_MOTION_DDOT = 0

CCSDS_OMM_VERS = 2.0
CREATION_DATE  = 
ORIGINATOR     = 

OBJECT_NAME    = STARLINK-36642
OBJECT_ID      = 2026-022M
CENTER_NAME    = EARTH
REF_FRAME      = TEME
TIME_SYSTEM    = UTC
MEAN_ELEMENT_THEORY = SGP/SGP4

EPOCH          = 2026-02-28T05:56:57.956928
MEAN_MOTION    = 15.75279227
ECCENTRICITY   = .00011926
INCLINATION    = 97.2839
RA_OF_ASC_NODE = 92.7755
ARG_OF_PERICENTER = 53.3009
MEAN_ANOMALY   = 306.8365

EPHEMERIS_TYPE = 0
CLASSIFICATION_TYPE = U
NORAD_CAT_ID   = 67659
ELEMENT_SET_NO = 999
REV_AT_EPOCH   = 406
BSTAR          = .11863297E-2
MEAN_MOTION_DOT = .181324E-2
MEAN_MOTION_DDOT = 0

CCSDS_OMM_VERS = 2.0
CREATION_DATE  = 
ORIGINATOR     = 

OBJECT_NAME    = STARLINK-36673
OBJECT_ID      = 2026-022N
CENTER_NAME    = EARTH
REF_FRAME      = TEME
TIME_SYSTEM    = UTC
MEAN_ELEMENT_THEORY = SGP/SGP4

EPOCH          = 2026-02-28T01:20:29.702112
MEAN_MOTION    = 15.75228760
ECCENTRICITY   = .0001651
INCLINATION    = 97.2837
RA_OF_ASC_NODE = 92.5764
ARG_OF_PERICENTER = 99.6737
MEAN_ANOMALY   = 260.4715

EPHEMERIS_TYPE = 0
CLASSIFICATION_TYPE = U
NORAD_CAT_ID   = 67660
ELEMENT_SET_NO = 999
REV_AT_EPOCH   = 403
BSTAR          = .77001338E-3
MEAN_MOTION_DOT = .116499E-2
MEAN_MOTION_DDOT = 0

CCSDS_OMM_VERS = 2.0
CREATION_DATE  = 
ORIGINATOR     = 

OBJECT_NAME    = STARLINK-36674
OBJECT_ID      = 2026-022P
CENTER_NAME    = EARTH
REF_FRAME      = TEME
TIME_SYSTEM    = UTC
MEAN_ELEMENT_THEORY = SGP/SGP4

EPOCH          = 2026-02-27T23:46:59.009664
MEAN_MOTION    = 15.75294551
ECCENTRICITY   = .00017945
INCLINATION    = 97.2832
RA_OF_ASC_NODE = 92.5120
ARG_OF_PERICENTER = 70.4807
MEAN_ANOMALY   = 289.6652

EPHEMERIS_TYPE = 0
CLASSIFICATION_TYPE = U
NORAD_CAT_ID   = 67661
ELEMENT_SET_NO = 999
REV_AT_EPOCH   = 402
BSTAR          = .17521225E-2
MEAN_MOTION_DOT = .270895E-2
MEAN_MOTION_DDOT = 0

