STARLINK-36703          
1 67650U 26022C   26059.06825081  .00190759  00000+0  12498-2 0  9994
2 67650  97.2822  92.5596 0001205  11.6054 348.5239 15.75220915  4035
STARLINK-36696          
1 67651U 26022D   26059.06648570  .00167089  00000+0  10998-2 0  9994
2 67651  97.2830  92.5622 0001669  17.2349 342.8972 15.75179706  4030
STARLINK-36699          
1 67652U 26022E   26059.06578085  .00180391  00000+0  11849-2 0  9995
2 67652  97.2830  92.5633 0001088  29.4094 330.7232 15.75191252  4035
STARLINK-36694          
1 67653U 26022F   26059.06366320  .00070786  00000+0  47117-3 0  9997
2 67653  97.2819  92.5656 0002443  81.5136 278.6406 15.75204808  4035
STARLINK-36620          
1 67654U 26022G   26059.06331056  .00174272  00000+0  11456-2 0  9997
2 67654  97.2833  92.5664 0001117  59.3716 300.7659 15.75190245  4031
STARLINK-36720          
1 67655U 26022H   26059.06153974  .00117399  00000+0  77525-3 0  9996
2 67655  97.2838  92.5696 0001394  99.7246 260.4177 15.75247688  4036
STARLINK-36688          
1 67656U 26022J   26059.06084144  .00110941  00000+0  73412-3 0  9996
2 67656  97.2824  92.5696 0001339  23.6410 336.4917 15.75219253  4033
STARLINK-36706          
1 67657U 26022K   26059.05942294  .00119474  00000+0  78917-3 0  9990
2 67657  97.2837  92.5712 0001893 105.7499 254.3975 15.75234654  4035
STARLINK-36701          
1 67658U 26022L   26059.05836915  .00144791  00000+0  95298-3 0  9994
2 67658  97.2839  92.5733 0001541 114.1219 246.0208 15.75244767  4038
STARLINK-36642          
1 67659U 26022M   26059.24789301  .00181324  00000+0  11863-2 0  9990
2 67659  97.2839  92.7755 0001193  53.3009 306.8365 15.75279227  4060
STARLINK-36673          
1 67660U 26022N   26059.05589933  .00116499  00000+0  77001-3 0  9998
2 67660  97.2837  92.5764 0001651  99.6737 260.4715 15.75228760  4035
STARLINK-36674          
1 67661U 26022P   26058.99096076  .00270895  00000+0  17521-2 0  9993
2 67661  97.2832  92.5120 0001794  70.4807 289.6652 15.75294551  4023
